$$SOE
2459580.500000000, A.D. 2022-Jan-01 00:00:00.0000, 3.147907651769597E+08, 1.911205188374997E+08, -1.294951547254202E+07,
2459587.500000000, A.D. 2022-Jan-08 00:00:00.0000, 3.090219407170066E+08, 2.002697290217254E+08, -1.167289496082219E+07,
2459594.500000000, A.D. 2022-Jan-15 00:00:00.0000, 3.029531736500068E+08, 2.092244627282434E+08, -1.038494354585543E+07,
2459601.500000000, A.D. 2022-Jan-22 00:00:00.0000, 2.965901128143228E+08, 2.179758598295524E+08, -9.086903666029826E+06,
2459608.500000000, A.D. 2022-Jan-29 00:00:00.0000, 2.899386197805701E+08, 2.265151842056513E+08, -7.780026961496651E+06,
2459615.500000000, A.D. 2022-Feb-05 00:00:00.0000, 2.830047671364645E+08, 2.348338247048556E+08, -6.465574037796736E+06,
2459622.500000000, A.D. 2022-Feb-12 00:00:00.0000, 2.757948391808681E+08, 2.429232952724630E+08, -5.144814516453385E+06,
2459629.500000000, A.D. 2022-Feb-19 00:00:00.0000, 2.683153336874142E+08, 2.507752366313019E+08, -3.819027054984137E+06,
2459636.500000000, A.D. 2022-Feb-26 00:00:00.0000, 2.605729634110255E+08, 2.583814188096119E+08, -2.489499272433236E+06,
2459643.500000000, A.D. 2022-Mar-05 00:00:00.0000, 2.525746574827212E+08, 2.657337439186551E+08, -1.157527642871946E+06,
2459650.500000000, A.D. 2022-Mar-12 00:00:00.0000, 2.443275629002670E+08, 2.728242491333626E+08, 1.755826199698150E+05,
2459657.500000000, A.D. 2022-Mar-19 00:00:00.0000, 2.358390461704580E+08, 2.796451099230065E+08, 1.508517685333997E+06,
2459664.500000000, A.D. 2022-Mar-26 00:00:00.0000, 2.271166951090367E+08, 2.861886435450159E+08, 2.839955235531703E+06,
2459671.500000000, A.D. 2022-Apr-02 00:00:00.0000, 2.181683208484736E+08, 2.924473127655432E+08, 4.168564595630169E+06,
2459678.500000000, A.D. 2022-Apr-09 00:00:00.0000, 2.090019603072830E+08, 2.984137298320352E+08, 5.493006841270983E+06,
2459685.500000000, A.D. 2022-Apr-16 00:00:00.0000, 1.996258794601685E+08, 3.040806613727280E+08, 6.811934908441365E+06,
2459692.500000000, A.D. 2022-Apr-23 00:00:00.0000, 1.900485761204662E+08, 3.094410353232787E+08, 8.123993913132727E+06,
2459699.500000000, A.D. 2022-Apr-30 00:00:00.0000, 1.802787803361032E+08, 3.144879476500181E+08, 9.427821672647193E+06,
2459706.500000000, A.D. 2022-May-07 00:00:00.0000, 1.703254554359449E+08, 3.192146669224715E+08, 1.072204899077559E+07,
2459713.500000000, A.D. 2022-May-14 00:00:00.0000, 1.601978010956948E+08, 3.236146397954659E+08, 1.200529983129342E+07,
2459720.500000000, A.D. 2022-May-21 00:00:00.0000, 1.499052563641637E+08, 3.276814981746969E+08, 1.327619163185917E+07,
2459727.500000000, A.D. 2022-May-28 00:00:00.0000, 1.394575021390111E+08, 3.314090671244526E+08, 1.453333572823182E+07,
2459734.500000000, A.D. 2022-Jun-04 00:00:00.0000, 1.288644633360957E+08, 3.347913732233017E+08, 1.577533784236391E+07,
2459741.500000000, A.D. 2022-Jun-11 00:00:00.0000, 1.181363108622355E+08, 3.378226533879840E+08, 1.700079862595287E+07,
2459748.500000000, A.D. 2022-Jun-18 00:00:00.0000, 1.072834633926045E+08, 3.404973641959760E+08, 1.820831426184018E+07,
2459755.500000000, A.D. 2022-Jun-25 00:00:00.0000, 9.631658894184026E+07, 3.428101916898369E+08, 1.939647712291181E+07,
2459762.500000000, A.D. 2022-Jul-02 00:00:00.0000, 8.524660631935237E+07, 3.447560616130589E+08, 2.056387647616370E+07,
2459769.500000000, A.D. 2022-Jul-09 00:00:00.0000, 7.408468681231304E+07, 3.463301502699099E+08, 2.170909921629597E+07,
2459776.500000000, A.D. 2022-Jul-16 00:00:00.0000, 6.284225599305969E+07, 3.475278971086066E+08, 2.283073072840625E+07,
2459783.500000000, A.D. 2022-Jul-23 00:00:00.0000, 5.153099340507220E+07, 3.483450191159939E+08, 2.392735609339236E+07,
2459790.500000000, A.D. 2022-Jul-30 00:00:00.0000, 4.016283015560823E+07, 3.487775236698053E+08, 2.499756135990658E+07,
2459797.500000000, A.D. 2022-Aug-06 00:00:00.0000, 2.874994795278734E+07, 3.488217205043786E+08, 2.603993461236000E+07,
2459804.500000000, A.D. 2022-Aug-13 00:00:00.0000, 1.730477870866884E+07, 3.484742355466932E+08, 2.705306714081661E+07,
2459811.500000000, A.D. 2022-Aug-20 00:00:00.0000, 5.840003074753622E+06, 3.477320261055884E+08, 2.803555481972158E+07,
2459818.500000000, A.D. 2022-Aug-27 00:00:00.0000, -5.631452098057931E+06, 3.465923966728353E+08, 2.898599963479377E+07,
2459825.500000000, A.D. 2022-Sep-03 00:00:00.0000, -1.709641720794870E+07, 3.450530152157883E+08, 2.990301133265032E+07,
2459832.500000000, A.D. 2022-Sep-10 00:00:00.0000, -2.854148424883862E+07, 3.431119299773985E+08, 3.078520919404349E+07,
2459839.500000000, A.D. 2022-Sep-17 00:00:00.0000, -3.995301210331976E+07, 3.407675867680803E+08, 3.163122393469024E+07,
2459846.500000000, A.D. 2022-Sep-24 00:00:00.0000, -5.131713279948118E+07, 3.380188466739544E+08, 3.243969972966522E+07,
2459853.500000000, A.D. 2022-Oct-01 00:00:00.0000, -6.261975857336681E+07, 3.348650041231021E+08, 3.320929634207037E+07,
2459860.500000000, A.D. 2022-Oct-08 00:00:00.0000, -7.384658941660613E+07, 3.313058057867569E+08, 3.393869136520328E+07,
2459867.500000000, A.D. 2022-Oct-15 00:00:00.0000, -8.498312213144396E+07, 3.273414714645180E+08, 3.462658276538025E+07,
2459874.500000000, A.D. 2022-Oct-22 00:00:00.0000, -9.601466316143078E+07, 3.229727152100945E+08, 3.527169179047029E+07,
2459881.500000000, A.D. 2022-Oct-29 00:00:00.0000, -1.069263427879317E+08, 3.182007640222455E+08, 3.587276580396211E+07,
2459888.500000000, A.D. 2022-Nov-05 00:00:00.0000, -1.177031286920833E+08, 3.130273767582946E+08, 3.642858107779835E+07,
2459895.500000000, A.D. 2022-Nov-12 00:00:00.0000, -1.283298409384505E+08, 3.074548644536247E+08, 3.693794582890527E+07,
2459902.500000000, A.D. 2022-Nov-19 00:00:00.0000, -1.387911691840319E+08, 3.014861109888504E+08, 3.739970348631512E+07,
2459909.500000000, A.D. 2022-Nov-26 00:00:00.0000, -1.490716919341965E+08, 2.951245935879539E+08, 3.781273613000979E+07,
2459916.500000000, A.D. 2022-Dec-03 00:00:00.0000, -1.591558977597682E+08, 2.883744030052287E+08, 3.817596808178283E+07,
2459923.500000000, A.D. 2022-Dec-10 00:00:00.0000, -1.690282085037296E+08, 2.812402632766334E+08, 3.848836964041972E+07,
2459930.500000000, A.D. 2022-Dec-17 00:00:00.0000, -1.786730045189212E+08, 2.737275508541223E+08, 3.874896095009656E+07,
2459937.500000000, A.D. 2022-Dec-24 00:00:00.0000, -1.880746518838385E+08, 2.658423128870182E+08, 3.895681597789551E+07,
2459944.500000000, A.D. 2022-Dec-31 00:00:00.0000, -1.972175312839971E+08, 2.575912845740939E+08, 3.911106656568879E+07,
2459951.500000000, A.D. 2023-Jan-07 00:00:00.0000, -2.060860684690318E+08, 2.489819063518302E+08, 3.921090661100315E+07,
2459958.500000000, A.D. 2023-Jan-14 00:00:00.0000, -2.146647682729888E+08, 2.400223412100761E+08, 3.925559658339392E+07,
2459965.500000000, A.D. 2023-Jan-21 00:00:00.0000, -2.229382528405149E+08, 2.307214887503239E+08, 3.924446815913494E+07,
2459972.500000000, A.D. 2023-Jan-28 00:00:00.0000, -2.308913003576207E+08, 2.210889955572510E+08, 3.917692859991190E+07,
2459979.500000000, A.D. 2023-Feb-04 00:00:00.0000, -2.385088844501202E+08, 2.111352646634265E+08, 3.905246511740489E+07,
2459986.500000000, A.D. 2023-Feb-11 00:00:00.0000, -2.457762159792935E+08, 2.008714636716613E+08, 3.887064934578498E+07,
2459993.500000000, A.D. 2023-Feb-18 00:00:00.0000, -2.526787871962312E+08, 1.903095304617084E+08, 3.863114182917472E+07,
2460000.500000000, A.D. 2023-Feb-25 00:00:00.0000, -2.592024178623491E+08, 1.794621760591855E+08, 3.833369645186824E+07,
2460007.500000000, A.D. 2023-Mar-04 00:00:00.0000, -2.653333030798345E+08, 1.683428844254640E+08, 3.797816476731341E+07,
2460014.500000000, A.D. 2023-Mar-11 00:00:00.0000, -2.710580626221671E+08, 1.569659089167624E+08, 3.756450018672969E+07,
2460021.500000000, A.D. 2023-Mar-18 00:00:00.0000, -2.763637915050850E+08, 1.453462651233695E+08, 3.709276198179604E+07,
2460028.500000000, A.D. 2023-Mar-25 00:00:00.0000, -2.812381113471386E+08, 1.334997198177179E+08, 3.656311904006757E+07,
2460035.500000000, A.D. 2023-Apr-01 00:00:00.0000, -2.856692218112088E+08, 1.214427761978392E+08, 3.597585332509858E+07,
2460042.500000000, A.D. 2023-Apr-08 00:00:00.0000, -2.896459524238997E+08, 1.091926564635135E+08, 3.533136315429921E+07,
2460049.500000000, A.D. 2023-Apr-15 00:00:00.0000, -2.931578167644958E+08, 9.676728045650886E+07, 3.463016637402909E+07,
2460056.500000000, A.D. 2023-Apr-22 00:00:00.0000, -2.961950668424828E+08, 8.418523718725888E+07, 3.387290297239847E+07,
2460063.500000000, A.D. 2023-Apr-29 00:00:00.0000, -2.987487445165783E+08, 7.146575141210297E+07, 3.306033701797212E+07,
2460070.500000000, A.D. 2023-May-06 00:00:00.0000, -3.008107312762495E+08, 5.862864698544168E+07, 3.219335818601812E+07,
2460077.500000000, A.D. 2023-May-13 00:00:00.0000, -3.023737969131604E+08, 4.569430608581558E+07, 3.127298284586413E+07,
2460084.500000000, A.D. 2023-May-20 00:00:00.0000, -3.034316463757603E+08, 3.268362387159432E+07, 3.030035460659977E+07,
2460091.500000000, A.D. 2023-May-27 00:00:00.0000, -3.039789641228807E+08, 1.961795862541606E+07, 2.927674426241546E+07,
2460098.500000000, A.D. 2023-Jun-03 00:00:00.0000, -3.040114554358444E+08, 6.519077546204613E+06, 2.820354910209326E+07,
2460105.500000000, A.D. 2023-Jun-10 00:00:00.0000, -3.035258842051036E+08, -6.590901632663950E+06, 2.708229155519626E+07,
2460112.500000000, A.D. 2023-Jun-17 00:00:00.0000, -3.025201066622322E+08, -1.968957299751828E+07, 2.591461714465559E+07,
2460119.500000000, A.D. 2023-Jun-24 00:00:00.0000, -3.009931003112767E+08, -3.275430839802385E+07, 2.470229170894474E+07,
2460126.500000000, A.D. 2023-Jul-01 00:00:00.0000, -2.989449873979720E+08, -4.576232576915032E+07, 2.344719793160760E+07,
2460133.500000000, A.D. 2023-Jul-08 00:00:00.0000, -2.963770542121382E+08, -5.869075857867623E+07, 2.215133139879114E+07,
2460140.500000000, A.D. 2023-Jul-15 00:00:00.0000, -2.932917671683151E+08, -7.151672875659052E+07, 2.081679607872558E+07,
2460147.500000000, A.D. 2023-Jul-22 00:00:00.0000, -2.896927818699045E+08, -8.421742362374200E+07, 1.944579883294387E+07,
$$EOE